RADFXSAT (FOX-1B)       
1 43017U 17073E   25165.58071556  .00008949  00000+0  45615-3 0  9992
2 43017  97.5251  36.2262 0173201 149.1837 211.9698 15.04798199409961
DIWATA-2B               
1 43678U 18084H   25165.73076223  .00001222  00000+0  10787-3 0  9990
2 43678  98.1040 342.0524 0007149 273.5444  86.4960 14.98357278361155
ES'HAIL 2               
1 43700U 18090A   25165.73736153  .00000157  00000+0  00000+0 0  9997
2 43700   0.0135 349.0308 0002309 129.1644  76.3312  1.00269881 24231
FOX-1CLIFF (AO-95)      
1 43770U 18099N   25165.59497444  .00008856  00000+0  44669-3 0  9991
2 43770  97.4904 223.6252 0010691 185.9905 174.1202 15.17319591357310
ITASAT                  
1 43786U 18099AE  25165.57227948  .00007011  00000+0  39980-3 0  9998
2 43786  97.4551 219.8089 0014399 182.8206 177.2947 15.12991834357219
JY1SAT (JO-97)          
1 43803U 18099AX  25165.65055849  .00011526  00000+0  52277-3 0  9996
2 43803  97.4649 224.6811 0008975 123.5602 236.6492 15.20948352357546
UWE-4                   
1 43880U 18111E   25165.65512694  .00013569  00000+0  52856-3 0  9994
2 43880  97.5902  78.6042 0011688 182.9466 177.1705 15.26040184352407
DUCHIFAT-3              
1 44854U 19089C   25165.78847662  .00043376  00000+0  83212-3 0  9990
2 44854  36.9442 322.0704 0004368 348.0173  12.0480 15.47010801303750
TIANYAN 01              
1 44881U 19093C   25165.74616034  .00000877  00000+0  10739-3 0  9991
2 44881  97.7924 241.2879 0013057 209.2774 150.7711 14.85611758296842
RS-44 & BREEZE-KM R/B   
1 44909U 19096E   25165.87006139  .00000028  00000+0  77193-4 0  9994
2 44909  82.5213 223.7636 0216269 283.2917  74.4148 12.79741158255405
SALSAT                  
1 46495U 20068K   25165.47861092  .00007041  00000+0  30378-3 0  9995
2 46495  97.8607 143.7333 0012533 138.8592 221.3590 15.22805311259276
LEDSAT                  
1 49069U 21073D   25165.75509708  .00062144  00000+0  72242-3 0  9997
2 49069  97.3886 247.5106 0008799  66.5786 293.6396 15.61495709212243
XW-3 (CAS-9)            
1 50466U 21131B   25165.76093879  .00000533  00000+0  18024-3 0  9995
2 50466  98.5104 255.0882 0005390 115.7636 244.4109 14.40820882182198
GREENCUBE (IO-117)      
1 53109U 22080E   25165.10423688 -.00000003  00000+0  00000+0 0  9993
2 53109  70.1414  66.2468 0008717   8.6558 351.4251  6.42583828 68410
