[
  {
    "OBJECT_NAME": "RADFXSAT (FOX-1B)",
    "OBJECT_ID": "2017-073E",
    "EPOCH": "2025-06-14T13:56:13.824384",
    "MEAN_MOTION": 15.04798199,
    "ECCENTRICITY": 0.0173201,
    "INCLINATION": 97.5251,
    "RA_OF_ASC_NODE": 36.2262,
    "ARG_OF_PERICENTER": 149.1837,
    "MEAN_ANOMALY": 211.9698,
    "EPHEMERIS_TYPE": 0,
    "CLASSIFICATION_TYPE": "U",
    "NORAD_CAT_ID": 43017,
    "ELEMENT_SET_NO": 999,
    "REV_AT_EPOCH": 40996,
    "BSTAR": 0.00045615,
    "MEAN_MOTION_DOT": 8.949e-05,
    "MEAN_MOTION_DDOT": 0
  },
  {
    "OBJECT_NAME": "DIWATA-2B",
    "OBJECT_ID": "2018-084H",
    "EPOCH": "2025-06-14T17:32:17.856672",
    "MEAN_MOTION": 14.98357278,
    "ECCENTRICITY": 0.0007149,
    "INCLINATION": 98.104,
    "RA_OF_ASC_NODE": 342.0524,
    "ARG_OF_PERICENTER": 273.5444,
    "MEAN_ANOMALY": 86.496,
    "EPHEMERIS_TYPE": 0,
    "CLASSIFICATION_TYPE": "U",
    "NORAD_CAT_ID": 43678,
    "ELEMENT_SET_NO": 999,
    "REV_AT_EPOCH": 36115,
    "BSTAR": 0.00010787,
    "MEAN_MOTION_DOT": 1.222e-05,
    "MEAN_MOTION_DDOT": 0
  },
  {
    "OBJECT_NAME": "ES'HAIL 2",
    "OBJECT_ID": "2018-090A",
    "EPOCH": "2025-06-14T17:41:48.036192",
    "MEAN_MOTION": 1.00269881,
    "ECCENTRICITY": 0.0002309,
    "INCLINATION": 0.0135,
    "RA_OF_ASC_NODE": 349.0308,
    "ARG_OF_PERICENTER": 129.1644,
    "MEAN_ANOMALY": 76.3312,
    "EPHEMERIS_TYPE": 0,
    "CLASSIFICATION_TYPE": "U",
    "NORAD_CAT_ID": 43700,
    "ELEMENT_SET_NO": 999,
    "REV_AT_EPOCH": 2423,
    "BSTAR": 0,
    "MEAN_MOTION_DOT": 1.57e-06,
    "MEAN_MOTION_DDOT": 0
  },
  {
    "OBJECT_NAME": "FOX-1CLIFF (AO-95)",
    "OBJECT_ID": "2018-099N",
    "EPOCH": "2025-06-14T14:16:45.791616",
    "MEAN_MOTION": 15.17319591,
    "ECCENTRICITY": 0.0010691,
    "INCLINATION": 97.4904,
    "RA_OF_ASC_NODE": 223.6252,
    "ARG_OF_PERICENTER": 185.9905,
    "MEAN_ANOMALY": 174.1202,
    "EPHEMERIS_TYPE": 0,
    "CLASSIFICATION_TYPE": "U",
    "NORAD_CAT_ID": 43770,
    "ELEMENT_SET_NO": 999,
    "REV_AT_EPOCH": 35731,
    "BSTAR": 0.00044669,
    "MEAN_MOTION_DOT": 8.856e-05,
    "MEAN_MOTION_DDOT": 0
  },
  {
    "OBJECT_NAME": "ITASAT",
    "OBJECT_ID": "2018-099AE",
    "EPOCH": "2025-06-14T13:44:04.947072",
    "MEAN_MOTION": 15.12991834,
    "ECCENTRICITY": 0.0014399,
    "INCLINATION": 97.4551,
    "RA_OF_ASC_NODE": 219.8089,
    "ARG_OF_PERICENTER": 182.8206,
    "MEAN_ANOMALY": 177.2947,
    "EPHEMERIS_TYPE": 0,
    "CLASSIFICATION_TYPE": "U",
    "NORAD_CAT_ID": 43786,
    "ELEMENT_SET_NO": 999,
    "REV_AT_EPOCH": 35721,
    "BSTAR": 0.0003998,
    "MEAN_MOTION_DOT": 7.011e-05,
    "MEAN_MOTION_DDOT": 0
  },
  {
    "OBJECT_NAME": "JY1SAT (JO-97)",
    "OBJECT_ID": "2018-099AX",
    "EPOCH": "2025-06-14T15:36:48.253536",
    "MEAN_MOTION": 15.20948352,
    "ECCENTRICITY": 0.0008975,
    "INCLINATION": 97.4649,
    "RA_OF_ASC_NODE": 224.6811,
    "ARG_OF_PERICENTER": 123.5602,
    "MEAN_ANOMALY": 236.6492,
    "EPHEMERIS_TYPE": 0,
    "CLASSIFICATION_TYPE": "U",
    "NORAD_CAT_ID": 43803,
    "ELEMENT_SET_NO": 999,
    "REV_AT_EPOCH": 35754,
    "BSTAR": 0.00052277,
    "MEAN_MOTION_DOT": 0.00011526,
    "MEAN_MOTION_DDOT": 0
  },
  {
    "OBJECT_NAME": "UWE-4",
    "OBJECT_ID": "2018-111E",
    "EPOCH": "2025-06-14T15:43:22.967616",
    "MEAN_MOTION": 15.26040184,
    "ECCENTRICITY": 0.0011688,
    "INCLINATION": 97.5902,
    "RA_OF_ASC_NODE": 78.6042,
    "ARG_OF_PERICENTER": 182.9466,
    "MEAN_ANOMALY": 177.1705,
    "EPHEMERIS_TYPE": 0,
    "CLASSIFICATION_TYPE": "U",
    "NORAD_CAT_ID": 43880,
    "ELEMENT_SET_NO": 999,
    "REV_AT_EPOCH": 35240,
    "BSTAR": 0.00052856,
    "MEAN_MOTION_DOT": 0.00013569,
    "MEAN_MOTION_DDOT": 0
  },
  {
    "OBJECT_NAME": "DUCHIFAT-3",
    "OBJECT_ID": "2019-089C",
    "EPOCH": "2025-06-14T18:55:24.379968",
    "MEAN_MOTION": 15.47010801,
    "ECCENTRICITY": 0.0004368,
    "INCLINATION": 36.9442,
    "RA_OF_ASC_NODE": 322.0704,
    "ARG_OF_PERICENTER": 348.0173,
    "MEAN_ANOMALY": 12.048,
    "EPHEMERIS_TYPE": 0,
    "CLASSIFICATION_TYPE": "U",
    "NORAD_CAT_ID": 44854,
    "ELEMENT_SET_NO": 999,
    "REV_AT_EPOCH": 30375,
    "BSTAR": 0.00083212,
    "MEAN_MOTION_DOT": 0.00043376,
    "MEAN_MOTION_DDOT": 0
  },
  {
    "OBJECT_NAME": "TIANYAN 01",
    "OBJECT_ID": "2019-093C",
    "EPOCH": "2025-06-14T17:54:28.253376",
    "MEAN_MOTION": 14.85611758,
    "ECCENTRICITY": 0.0013057,
    "INCLINATION": 97.7924,
    "RA_OF_ASC_NODE": 241.2879,
    "ARG_OF_PERICENTER": 209.2774,
    "MEAN_ANOMALY": 150.7711,
    "EPHEMERIS_TYPE": 0,
    "CLASSIFICATION_TYPE": "U",
    "NORAD_CAT_ID": 44881,
    "ELEMENT_SET_NO": 999,
    "REV_AT_EPOCH": 29684,
    "BSTAR": 0.00010739,
    "MEAN_MOTION_DOT": 8.77e-06,
    "MEAN_MOTION_DDOT": 0
  },
  {
    "OBJECT_NAME": "RS-44 & BREEZE-KM R/B",
    "OBJECT_ID": "2019-096E",
    "EPOCH": "2025-06-14T20:52:53.304096",
    "MEAN_MOTION": 12.79741158,
    "ECCENTRICITY": 0.0216269,
    "INCLINATION": 82.5213,
    "RA_OF_ASC_NODE": 223.7636,
    "ARG_OF_PERICENTER": 283.2917,
    "MEAN_ANOMALY": 74.4148,
    "EPHEMERIS_TYPE": 0,
    "CLASSIFICATION_TYPE": "U",
    "NORAD_CAT_ID": 44909,
    "ELEMENT_SET_NO": 999,
    "REV_AT_EPOCH": 25540,
    "BSTAR": 7.7193e-05,
    "MEAN_MOTION_DOT": 2.8e-07,
    "MEAN_MOTION_DDOT": 0
  },
  {
    "OBJECT_NAME": "SALSAT",
    "OBJECT_ID": "2020-068K",
    "EPOCH": "2025-06-14T11:29:11.983488",
    "MEAN_MOTION": 15.22805311,
    "ECCENTRICITY": 0.0012533,
    "INCLINATION": 97.8607,
    "RA_OF_ASC_NODE": 143.7333,
    "ARG_OF_PERICENTER": 138.8592,
    "MEAN_ANOMALY": 221.359,
    "EPHEMERIS_TYPE": 0,
    "CLASSIFICATION_TYPE": "U",
    "NORAD_CAT_ID": 46495,
    "ELEMENT_SET_NO": 999,
    "REV_AT_EPOCH": 25927,
    "BSTAR": 0.00030378,
    "MEAN_MOTION_DOT": 7.041e-05,
    "MEAN_MOTION_DDOT": 0
  },
  {
    "OBJECT_NAME": "LEDSAT",
    "OBJECT_ID": "2021-073D",
    "EPOCH": "2025-06-14T18:07:20.387712",
    "MEAN_MOTION": 15.61495709,
    "ECCENTRICITY": 0.0008799,
    "INCLINATION": 97.3886,
    "RA_OF_ASC_NODE": 247.5106,
    "ARG_OF_PERICENTER": 66.5786,
    "MEAN_ANOMALY": 293.6396,
    "EPHEMERIS_TYPE": 0,
    "CLASSIFICATION_TYPE": "U",
    "NORAD_CAT_ID": 49069,
    "ELEMENT_SET_NO": 999,
    "REV_AT_EPOCH": 21224,
    "BSTAR": 0.00072242,
    "MEAN_MOTION_DOT": 0.00062144,
    "MEAN_MOTION_DDOT": 0
  },
  {
    "OBJECT_NAME": "XW-3 (CAS-9)",
    "OBJECT_ID": "2021-131B",
    "EPOCH": "2025-06-14T18:15:45.111456",
    "MEAN_MOTION": 14.40820882,
    "ECCENTRICITY": 0.000539,
    "INCLINATION": 98.5104,
    "RA_OF_ASC_NODE": 255.0882,
    "ARG_OF_PERICENTER": 115.7636,
    "MEAN_ANOMALY": 244.4109,
    "EPHEMERIS_TYPE": 0,
    "CLASSIFICATION_TYPE": "U",
    "NORAD_CAT_ID": 50466,
    "ELEMENT_SET_NO": 999,
    "REV_AT_EPOCH": 18219,
    "BSTAR": 0.00018024,
    "MEAN_MOTION_DOT": 5.33e-06,
    "MEAN_MOTION_DDOT": 0
  },
  {
    "OBJECT_NAME": "GREENCUBE (IO-117)",
    "OBJECT_ID": "2022-080E",
    "EPOCH": "2025-06-14T02:30:06.066432",
    "MEAN_MOTION": 6.42583828,
    "ECCENTRICITY": 0.0008717,
    "INCLINATION": 70.1414,
    "RA_OF_ASC_NODE": 66.2468,
    "ARG_OF_PERICENTER": 8.6558,
    "MEAN_ANOMALY": 351.4251,
    "EPHEMERIS_TYPE": 0,
    "CLASSIFICATION_TYPE": "U",
    "NORAD_CAT_ID": 53109,
    "ELEMENT_SET_NO": 999,
    "REV_AT_EPOCH": 6841,
    "BSTAR": 0,
    "MEAN_MOTION_DOT": -3e-08,
    "MEAN_MOTION_DDOT": 0
  }
]